[{"OBJECT_NAME":"NOAA 18","OBJECT_ID":"2005-018A","EPOCH":"2026-03-27T05:39:16.208064","MEAN_MOTION":14.13714354,"ECCENTRICITY":0.00146474,"INCLINATION":98.8133,"RA_OF_ASC_NODE":167.0952,"ARG_OF_PERICENTER":28.1985,"MEAN_ANOMALY":331.9978,"EPHEMERIS_TYPE":0,"CLASSIFICATION_TYPE":"U","NORAD_CAT_ID":28654,"ELEMENT_SET_NO":999,"REV_AT_EPOCH":7473,"BSTAR":4.5743388e-5,"MEAN_MOTION_DOT":4.3e-7,"MEAN_MOTION_DDOT":0},{"OBJECT_NAME":"NOAA 19","OBJECT_ID":"2009-005A","EPOCH":"2026-03-27T05:16:40.306080","MEAN_MOTION":14.13460188,"ECCENTRICITY":0.00127199,"INCLINATION":98.9575,"RA_OF_ASC_NODE":157.0178,"ARG_OF_PERICENTER":261.1562,"MEAN_ANOMALY":98.817,"EPHEMERIS_TYPE":0,"CLASSIFICATION_TYPE":"U","NORAD_CAT_ID":33591,"ELEMENT_SET_NO":999,"REV_AT_EPOCH":88290,"BSTAR":4.9127536e-5,"MEAN_MOTION_DOT":4.7e-7,"MEAN_MOTION_DDOT":0},{"OBJECT_NAME":"SUOMI NPP","OBJECT_ID":"2011-061A","EPOCH":"2026-03-27T07:03:40.798944","MEAN_MOTION":14.19498061,"ECCENTRICITY":0.00015781,"INCLINATION":98.789,"RA_OF_ASC_NODE":27.7588,"ARG_OF_PERICENTER":162.8146,"MEAN_ANOMALY":197.3084,"EPHEMERIS_TYPE":0,"CLASSIFICATION_TYPE":"U","NORAD_CAT_ID":37849,"ELEMENT_SET_NO":999,"REV_AT_EPOCH":74682,"BSTAR":6.7817979e-5,"MEAN_MOTION_DOT":9.9e-7,"MEAN_MOTION_DDOT":0},{"OBJECT_NAME":"NOAA 20 (JPSS-1)","OBJECT_ID":"2017-073A","EPOCH":"2026-03-27T05:43:01.150464","MEAN_MOTION":14.19540559,"ECCENTRICITY":0.0001851,"INCLINATION":98.7711,"RA_OF_ASC_NODE":26.453,"ARG_OF_PERICENTER":114.139,"MEAN_ANOMALY":245.998,"EPHEMERIS_TYPE":0,"CLASSIFICATION_TYPE":"U","NORAD_CAT_ID":43013,"ELEMENT_SET_NO":999,"REV_AT_EPOCH":43284,"BSTAR":6.2009958e-5,"MEAN_MOTION_DOT":8.7e-7,"MEAN_MOTION_DDOT":0}]
