NOAA 18                 
1 28654U 05018A   26086.23560426  .00000043  00000+0  45743-4 0  9992
2 28654  98.8133 167.0952 0014647  28.1985 331.9978 14.13714354 74738
NOAA 19                 
1 33591U 09005A   26086.21991095  .00000047  00000+0  49128-4 0  9991
2 33591  98.9575 157.0178 0012719 261.1562  98.8170 14.13460188882904
SUOMI NPP               
1 37849U 11061A   26086.29422221  .00000099  00000+0  67818-4 0  9997
2 37849  98.7890  27.7588 0001578 162.8146 197.3084 14.19498061746822
NOAA 20 (JPSS-1)        
1 43013U 17073A   26086.23820776  .00000087  00000+0  62010-4 0  9993
2 43013  98.7711  26.4530 0001851 114.1390 245.9980 14.19540559432841
